ONEWEB-0427             
1 50499U 21132AG  24338.54757133  .00000089  00000+0  19344-3 0  9991
2 50499  87.9113  86.9970 0001828 109.9851 250.1478 13.18685506147720
ONEWEB-0429             
1 50500U 21132AH  24338.61080094  .00000074  00000+0  15378-3 0  9994
2 50500  87.9110  87.0009 0001511  96.3335 263.7969 13.18684978147705
ONEWEB-0430             
1 50501U 21132AJ  24338.59974386  .00000082  00000+0  17455-3 0  9995
2 50501  87.9109  87.0021 0001208 109.5335 250.5928 13.18688410147746
ONEWEB-0432             
1 50502U 21132AK  24338.55547383  .00000106  00000+0  23676-3 0  9994
2 50502  87.9111  87.0018 0001933 136.2230 223.9055 13.18688660147698
ONEWEB-0440             
1 50503U 21132AL  24338.54283702  .00000070  00000+0  14354-3 0  9999
2 50503  87.9111  86.9981 0001796  88.4544 271.6793 13.18687722147685
ONEWEB-0450             
1 50504U 21132AM  24338.53660890 -.00002800  00000+0 -71347-2 0  9995
2 50504  87.9135  87.0301 0000966  86.2192 273.9050 13.18697831147710
ONEWEB-0410             
1 51622U 22012A   24338.42867645  .00000003  00000+0 -25924-4 0  9994
2 51622  87.9086 117.5568 0002914 113.9787 246.1650 13.17650440139852
ONEWEB-0411             
1 51623U 22012B   24338.54896937  .00000673  00000+0  18915-2 0  9996
2 51623  87.8885 147.9138 0000883 104.1341 255.9884 13.10372055135860
